GLOBALSTAR M067 [+]     
1 32263U 07048A   23284.81249809 -.00000111  00000+0 -10412-3 0  9990
2 32263  51.9754  33.5755 0001544 108.8325  61.5221 12.40632372733479
GLOBALSTAR M070 [+]     
1 32264U 07048B   23285.17744284 -.00000077  00000+0  14840-3 0  9997
2 32264  51.9742 198.9614 0000583  99.2150  48.5338 12.62279731737106
GLOBALSTAR M066 [+]     
1 32265U 07048C   23284.56788243 -.00000081  00000+0  12485-3 0  9991
2 32265  51.9680  62.8824 0001012  72.8516  16.3527 12.62265865739255
GLOBALSTAR M068 [-]     
1 32266U 07048D   23284.55537601 -.00000061  00000+0  23783-3 0  9992
2 32266  51.9911  15.7671 0000786 179.8982 285.7725 12.62767747740195
GLOBALSTAR M079 [+]     
1 37188U 10054A   23285.20721897 -.00000097  00000+0  37005-4 0  9998
2 37188  52.0032 208.8405 0000843  59.0794 106.6051 12.62268658599599
GLOBALSTAR M074 [+]     
1 37189U 10054B   23285.23311472 -.00000091  00000+0  68604-4 0  9999
2 37189  52.0007 208.1789 0000687  71.2214  92.5192 12.62270558599590
GLOBALSTAR M076 [+]     
1 37190U 10054C   23284.54862311 -.00000101  00000+0  13889-4 0  9994
2 37190  52.0023 210.3779 0001219  77.4874  94.2743 12.62261981599159
GLOBALSTAR M077 [+]     
1 37191U 10054D   23284.59475899 -.00000074  00000+0  16364-3 0  9990
2 37191  52.0059 166.9191 0000798  81.6432 358.6168 12.62267336599531
